NORAD_CAT_ID,OBJECT_NAME,OBJECT_TYPE,EPOCH,MEAN_MOTION,ECCENTRICITY,INCLINATION,RA_OF_ASC_NODE,ARG_OF_PERICENTER,MEAN_ANOMALY,BSTAR,MEAN_MOTION_DOT,MEAN_MOTION_DDOT,TLE_LINE0,TLE_LINE1,TLE_LINE2,SEMIMAJOR_AXIS,PERIOD,APOGEE,PERIGEE,DECAYED
53978.0,STARLINK-5148,PAYLOAD,2023-04-10 00:16:21,15.08843055,9.84e-05,53.2157,318.5348,84.7383,275.3722,0.00011911,1.609e-05,0.0,0 STARLINK-5148,1 53978U 22125Q   23100.01136160  .00001609  00000-0  11911-3 0  9990,2 53978  53.2157 318.5348 0000984  84.7383 275.3722 15.08843055 28662,6917.871,95.437,540.417,539.055,0.0
53978.0,STARLINK-5148,PAYLOAD,2023-04-11 00:07:08,15.08851701,0.0001006,53.2166,314.0744,74.2181,285.8922,0.00021647,3.16e-05,0.0,0 STARLINK-5148,1 53978U 22125Q   23101.00495665  .00003160  00000-0  21647-3 0  9999,2 53978  53.2166 314.0744 0001006  74.2181 285.8922 15.08851701 28888,6917.845,95.437,540.406,539.014,0.0
53978.0,STARLINK-5148,PAYLOAD,2023-04-11 20:47:09,15.08836192,0.000103,53.2164,310.2082,74.2951,285.8155,-5.6076e-05,-1.18e-05,0.0,0 STARLINK-5148,1 53978U 22125Q   23101.86608338 -.00001180  00000-0 -56076-4 0  9993,2 53978  53.2164 310.2082 0001030  74.2951 285.8155 15.08836192 28943,6917.892,95.438,540.47,539.044,0.0
53978.0,STARLINK-5148,PAYLOAD,2023-04-11 23:57:55,15.08837764,0.0001079,53.216,309.6131,76.5652,283.546,-3.0632e-05,-7.75e-06,0.0,0 STARLINK-5148,1 53978U 22125Q   23101.99856255 -.00000775  00000-0 -30632-4 0  9999,2 53978  53.2160 309.6131 0001079  76.5652 283.5460 15.08837764 28964,6917.887,95.438,540.499,539.006,0.0
53978.0,STARLINK-5148,PAYLOAD,2023-04-13 06:10:15,15.08832025,0.0001528,53.2204,303.963,79.3071,280.8093,7.7151e-05,9.4e-06,0.0,0 STARLINK-5148,1 53978U 22125Q   23103.25712926  .00000940  00000-0  77151-4 0  9995,2 53978  53.2204 303.9630 0001528  79.3071 280.8093 15.08832025 29158,6917.905,95.438,540.827,538.713,0.0
53978.0,STARLINK-5148,PAYLOAD,2023-04-13 15:42:34,15.08836391,0.0001164,53.2171,302.1801,94.4731,265.6395,7.9316e-05,9.75e-06,0.0,0 STARLINK-5148,1 53978U 22125Q   23103.65456660  .00000975  00000-0  79316-4 0  9992,2 53978  53.2171 302.1801 0001164  94.4731 265.6395 15.08836391 29289,6917.891,95.438,540.562,538.951,0.0
53978.0,STARLINK-5148,PAYLOAD,2023-04-14 12:22:35,15.08838972,0.0001269,53.2153,298.3138,89.7014,270.4123,9.4974e-05,1.224e-05,0.0,0 STARLINK-5148,1 53978U 22125Q   23104.51568688  .00001224  00000-0  94974-4 0  9997,2 53978  53.2153 298.3138 0001269  89.7014 270.4123 15.08838972 29342,6917.884,95.438,540.626,538.871,0.0
53978.0,STARLINK-5148,PAYLOAD,2023-04-14 21:54:53,15.08844223,0.0001428,53.217,296.5286,80.8229,279.2925,0.0001519,2.131e-05,0.0,0 STARLINK-5148,1 53978U 22125Q   23104.91312171  .00002131  00000-0  15190-3 0  9995,2 53978  53.2170 296.5286 0001428  80.8229 279.2925 15.08844223 29479,6917.867,95.437,540.72,538.745,0.0
53978.0,STARLINK-5148,PAYLOAD,2023-04-15 12:13:22,15.08836716,0.0001265,53.2145,293.8532,86.9263,273.1874,7.6881e-05,9.36e-06,0.0,0 STARLINK-5148,1 53978U 22125Q   23105.50928937  .00000936  00000-0  76881-4 0  9990,2 53978  53.2145 293.8532 0001265  86.9263 273.1874 15.08836716 29495,6917.89,95.438,540.631,538.88,0.0
53978.0,STARLINK-5148,PAYLOAD,2023-04-15 21:45:40,15.08846639,0.0001,53.2167,292.0684,99.3724,260.7381,9.4545e-05,1.217e-05,0.0,0 STARLINK-5148,1 53978U 22125Q   23105.90672192  .00001217  00000-0  94545-4 0  9993,2 53978  53.2167 292.0684 0001000  99.3724 260.7381 15.08846639 29552,6917.86,95.437,540.417,539.033,0.0
53978.0,STARLINK-5148,PAYLOAD,2023-04-16 12:04:09,15.08842694,0.0001196,53.2157,289.3919,93.1193,266.9936,8.269e-05,1.028e-05,0.0,0 STARLINK-5148,1 53978U 22125Q   23106.50288610  .00001028  00000-0  82690-4 0  9996,2 53978  53.2157 289.3919 0001196  93.1193 266.9936 15.08842694 29718,6917.872,95.437,540.565,538.91,0.0
53978.0,STARLINK-5148,PAYLOAD,2023-04-16 21:36:27,15.08851532,0.0001118,53.2152,287.6074,97.9498,262.1622,0.00021525,3.141e-05,0.0,0 STARLINK-5148,1 53978U 22125Q   23106.90032055  .00003141  00000-0  21525-3 0  9997,2 53978  53.2152 287.6074 0001118  97.9498 262.1622 15.08851532 29700,6917.845,95.437,540.484,538.937,0.0
53978.0,STARLINK-5148,PAYLOAD,2023-04-17 05:33:23,15.08845525,0.0001054,53.2158,286.1221,79.3574,280.7536,0.00017152,2.443e-05,0.0,0 STARLINK-5148,1 53978U 22125Q   23107.23152350  .00002443  00000-0  17152-3 0  9990,2 53978  53.2158 286.1221 0001054  79.3574 280.7536 15.08845525 29820,6917.864,95.437,540.458,538.999,0.0
53978.0,STARLINK-5148,PAYLOAD,2023-04-17 21:27:15,15.08846377,0.000135,53.2167,283.1472,92.0844,268.0303,0.00013611,1.879e-05,0.0,0 STARLINK-5148,1 53978U 22125Q   23107.89392440  .00001879  00000-0  13611-3 0  9996,2 53978  53.2167 283.1472 0001350  92.0844 268.0303 15.08846377 29856,6917.861,95.437,540.66,538.792,0.0
53978.0,STARLINK-5148,PAYLOAD,2023-04-17 23:02:38,15.08849723,0.0001335,53.2172,282.8501,91.8093,268.3052,0.00019007,2.739e-05,0.0,0 STARLINK-5148,1 53978U 22125Q   23107.96016247  .00002739  00000-0  19007-3 0  9993,2 53978  53.2172 282.8501 0001335  91.8093 268.3052 15.08849723 29860,6917.851,95.437,540.639,538.792,0.0
53978.0,STARLINK-5148,PAYLOAD,2023-04-18 18:07:15,15.08844286,0.0001105,53.2154,279.2822,91.9068,268.205,0.00012756,1.743e-05,0.0,0 STARLINK-5148,1 53978U 22125Q   23108.75504546  .00001743  00000-0  12756-3 0  9993,2 53978  53.2154 279.2822 0001105  91.9068 268.2050 15.08844286 30053,6917.867,95.437,540.497,538.968,0.0
53978.0,STARLINK-5148,PAYLOAD,2023-04-19 11:36:30,15.08837676,0.0001354,53.2164,276.0135,91.8483,268.2665,0.0001197,1.618e-05,0.0,0 STARLINK-5148,1 53978U 22125Q   23109.48368988  .00001618  00000-0  11970-3 0  9990,2 53978  53.2164 276.0135 0001354  91.8483 268.2665 15.08837676 30093,6917.887,95.438,540.689,538.816,0.0
53978.0,STARLINK-5148,PAYLOAD,2023-04-19 17:58:02,15.0885064,0.000175,53.2163,274.824,100.5735,259.5454,0.00030596,4.586e-05,0.0,0 STARLINK-5148,1 53978U 22125Q   23109.74864507  .00004586  00000-0  30596-3 0  9999,2 53978  53.2163 274.8240 0001750 100.5735 259.5454 15.08850640 30201,6917.848,95.437,540.923,538.502,0.0
53978.0,STARLINK-5148,PAYLOAD,2023-04-20 11:27:18,15.08824817,0.0001215,53.2163,271.5503,85.4095,274.7036,-0.00015796,-2.8e-05,0.0,0 STARLINK-5148,1 53978U 22125Q   23110.47729452 -.00002800  00000-0 -15796-3 0  9994,2 53978  53.2163 271.5503 0001215  85.4095 274.7036 15.08824817 30249,6917.927,95.439,540.632,538.951,0.0
53978.0,STARLINK-5148,PAYLOAD,2023-04-20 17:48:50,15.08833915,0.000142,53.2163,270.3613,89.6904,270.4251,-5.0367e-05,-1.089e-05,0.0,0 STARLINK-5148,1 53978U 22125Q   23110.74225265 -.00001089  00000-0 -50367-4 0  9999,2 53978  53.2163 270.3613 0001420  89.6904 270.4251 15.08833915 30354,6917.899,95.438,540.746,538.782,0.0
53978.0,STARLINK-5148,PAYLOAD,2023-04-20 20:59:36,15.08835256,0.0001234,53.2167,269.7669,84.8813,275.232,1.9235e-05,1.8e-07,0.0,0 STARLINK-5148,1 53978U 22125Q   23110.87473325  .00000018  00000-0  19235-4 0  9993,2 53978  53.2167 269.7669 0001234  84.8813 275.2320 15.08835256 30305,6917.895,95.438,540.614,538.906,0.0
53978.0,STARLINK-5148,PAYLOAD,2023-04-21 03:21:09,15.08836298,0.0001232,53.2165,268.5772,83.2628,276.8505,0.00021058,3.065e-05,0.0,0 STARLINK-5148,1 53978U 22125Q   23111.13969464  .00003065  00000-0  21058-3 0  9997,2 53978  53.2165 268.5772 0001232  83.2628 276.8505 15.08836298 30343,6917.892,95.438,540.609,538.904,0.0
53978.0,STARLINK-5148,PAYLOAD,2023-04-21 19:15:00,15.08853529,0.0001196,53.2168,265.6037,81.142,278.9708,0.00056319,8.69e-05,0.0,0 STARLINK-5148,1 53978U 22125Q   23111.80209125  .00008690  00000-0  56319-3 0  9999,2 53978  53.2168 265.6037 0001196  81.1420 278.9708 15.08853529 30449,6917.839,95.437,540.531,538.877,0.0
53978.0,STARLINK-5148,PAYLOAD,2023-04-21 22:25:46,15.08865351,0.0001137,53.2155,265.0074,72.7916,287.3201,0.0010067,0.00015781,0.0,0 STARLINK-5148,1 53978U 22125Q   23111.93456882  .00015781  00000-0  10067-2 0  9995,2 53978  53.2155 265.0074 0001137  72.7916 287.3201 15.08865351 30461,6917.803,95.436,540.454,538.881,0.0
53978.0,STARLINK-5148,PAYLOAD,2023-04-22 22:16:33,15.0886027,0.0002242,53.2152,260.5476,57.8178,302.3031,0.0007862,0.00012253,0.0,0 STARLINK-5148,1 53978U 22125Q   23112.92816936  .00012253  00000-0  78620-3 0  9996,2 53978  53.2152 260.5476 0002242  57.8178 302.3031 15.08860270 30684,6917.818,95.436,541.234,538.132,0.0
53978.0,STARLINK-5148,PAYLOAD,2023-04-23 09:24:16,15.08829464,9.77e-05,53.2149,258.4655,82.0775,278.0328,8.7136e-05,1.099e-05,0.0,0 STARLINK-5148,1 53978U 22125Q   23113.39185301  .00001099  00000-0  87136-4 0  9992,2 53978  53.2149 258.4655 0000977  82.0775 278.0328 15.08829464 30757,6917.913,95.438,540.453,539.102,0.0
53978.0,STARLINK-5148,PAYLOAD,2023-04-23 12:35:02,15.08826771,0.0001074,53.2151,257.8707,107.2408,252.8702,0.0012119,0.00019045,0.0,0 STARLINK-5148,1 53978U 22125Q   23113.52433528  .00019045  00000-0  12119-2 0  9991,2 53978  53.2151 257.8707 0001074 107.2408 252.8702 15.08826771 30702,6917.921,95.438,540.529,539.043,0.0
53978.0,STARLINK-5148,PAYLOAD,2023-04-23 18:56:35,15.08849311,0.0001242,53.2151,256.6821,81.6135,278.4998,0.0024017,0.00038152,0.0,0 STARLINK-5148,1 53978U 22125Q   23113.78929597  .00038152  00000-0  24017-2 0  9995,2 53978  53.2151 256.6821 0001242  81.6135 278.4998 15.08849311 30745,6917.852,95.437,540.576,538.858,0.0
53978.0,STARLINK-5148,PAYLOAD,2023-04-24 02:53:30,15.0885732,0.000136,53.2149,255.1956,79.0754,281.0392,0.0017762,0.00028107,0.0,0 STARLINK-5148,1 53978U 22125Q   23114.12049513  .00028107  00000-0  17762-2 0  9993,2 53978  53.2149 255.1956 0001360  79.0754 281.0392 15.08857320 30864,6917.827,95.436,540.633,538.752,0.0
53978.0,STARLINK-5148,PAYLOAD,2023-04-25 09:05:49,15.0879054,0.0002647,53.2151,249.5451,109.0641,251.0638,0.0015831,0.00024963,0.0,0 STARLINK-5148,1 53978U 22125Q   23115.37904712  .00024963  00000-0  15831-2 0  9993,2 53978  53.2151 249.5451 0002647 109.0641 251.0638 15.08790540 31054,6918.032,95.441,541.728,538.065,0.0
